NORAD_CAT_ID,OBJECT_NAME,OBJECT_TYPE,EPOCH,MEAN_MOTION,ECCENTRICITY,INCLINATION,RA_OF_ASC_NODE,ARG_OF_PERICENTER,MEAN_ANOMALY,BSTAR,MEAN_MOTION_DOT,MEAN_MOTION_DDOT,TLE_LINE0,TLE_LINE1,TLE_LINE2,SEMIMAJOR_AXIS,PERIOD,APOGEE,PERIGEE,DECAYED
27216,PSLV DEB,DEBRIS,2023-01-20 10:27:14,15.14548192,0.0024893000000000003,98.1684,87.93,171.9258,198.6486,0.0017242999999999998,0.00032074,0.0,0 PSLV DEB,1 27216U 01049FL  23020.43558031  .00032074  00000-0  17243-2 0  9993,2 27216  98.1684  87.9300 0024893 171.9258 198.6486 15.14548192144711,6900.488,95.078,539.53,505.175,0.0
27216,PSLV DEB,DEBRIS,2023-01-21 10:28:36,15.14620627,0.0024938000000000004,98.1672,89.00399999999998,168.5083,256.3535,0.0019666,0.00036691,0.0,0 PSLV DEB,1 27216U 01049FL  23021.43653104  .00036691  00000-0  19666-2 0  9991,2 27216  98.1672  89.0040 0024938 168.5083 256.3535 15.14620627144878,6900.268,95.073,539.34,504.925,0.0
27216,PSLV DEB,DEBRIS,2023-01-23 03:32:41,15.14737588,0.0024824,98.1661,90.8396,162.931,226.8493,0.0018167,0.00033986,0.0,0 PSLV DEB,1 27216U 01049FL  23023.14769939  .00033986  00000-0  18167-2 0  9994,2 27216  98.1661  90.8396 0024824 162.9310 226.8493 15.14737588145135,6899.911999999998,95.066,538.906,504.649,0.0
27216,PSLV DEB,DEBRIS,2023-01-24 09:47:40,15.14822261,0.0024867,98.1662,92.1924,158.506,260.2403,0.0018186,0.00034104,0.0,0 PSLV DEB,1 27216U 01049FL  23024.40810479  .00034104  00000-0  18186-2 0  9994,2 27216  98.1662  92.1924 0024867 158.5060 260.2403 15.14822261145325,6899.655,95.061,538.678,504.36300000000006,0.0
27216,PSLV DEB,DEBRIS,2023-01-25 03:14:26,15.14863063,0.0025173,98.1649,92.972,155.6047,264.8732,0.0016143000000000002,0.0003029,0.0,0 PSLV DEB,1 27216U 01049FL  23025.13502360  .00030290  00000-0  16143-2 0  9995,2 27216  98.1649  92.9720 0025173 155.6047 264.8732 15.14863063145438,6899.531,95.058,538.765,504.028,0.0
27216,PSLV DEB,DEBRIS,2023-01-26 03:01:25,15.14921113,0.0025078,98.1657,94.0363,152.3207,269.1,0.0016923,0.00031814,0.0,0 PSLV DEB,1 27216U 01049FL  23026.12598503  .00031814  00000-0  16923-2 0  9998,2 27216  98.1657  94.0363 0025078 152.3207 269.1000 15.14921113145593,6899.355,95.054,538.5219999999998,503.918,0.0
27216,PSLV DEB,DEBRIS,2023-01-27 04:23:49,15.14975301,0.0025066,98.1643,95.1696,148.9131,274.8529,0.0013343,0.00025083,0.0,0 PSLV DEB,1 27216U 01049FL  23027.18321698  .00025083  00000-0  13343-2 0  9998,2 27216  98.1643  95.1696 0025066 148.9131 274.8529 15.14975301145747,6899.191,95.051,538.349,503.762,0.0
27216,PSLV DEB,DEBRIS,2023-01-28 04:00:56,15.15022968,0.0024879,98.1655,96.2278,146.2922,241.4446,0.00131,0.00024654,0.0,0 PSLV DEB,1 27216U 01049FL  23028.16732464  .00024654  00000-0  13100-2 0  9998,2 27216  98.1655  96.2278 0024879 146.2922 241.4446 15.15022968145907,6899.045999999999,95.04799999999999,538.075,503.74699999999996,0.0
27216,PSLV DEB,DEBRIS,2023-01-29 03:47:43,15.15061982,0.0024760000000000003,98.1656,97.2912,143.2524,245.2043,0.0010489000000000002,0.00019732,0.0,0 PSLV DEB,1 27216U 01049FL  23029.15814625  .00019732  00000-0  10489-2 0  9996,2 27216  98.1656  97.2912 0024760 143.2524 245.2043 15.15061982146048,6898.927,95.046,537.874,503.711,0.0
27216,PSLV DEB,DEBRIS,2023-01-29 15:26:48,15.15081876,0.0024434,98.1663,97.8127,141.0678,13.6041,0.0010046,0.00018899999999999999,0.0,0 PSLV DEB,1 27216U 01049FL  23029.64361480  .00018900  00000-0  10046-2 0  9991,2 27216  98.1663  97.8127 0024434 141.0678  13.6041 15.15081876146122,6898.866999999999,95.044,537.589,503.875,0.0
27216,PSLV DEB,DEBRIS,2023-01-30 03:34:41,15.150999100000002,0.0024467,98.1662,98.3556,139.3781,250.5973,0.00098595,0.00018556,0.0,0 PSLV DEB,1 27216U 01049FL  23030.14908939  .00018556  00000-0  98595-3 0  9997,2 27216  98.1662  98.3556 0024467 139.3781 250.5973 15.15099910146207,6898.812,95.04299999999999,537.557,503.798,0.0
27216,PSLV DEB,DEBRIS,2023-01-31 03:21:24,15.15136199,0.0024781,98.1652,99.4194,136.0469,254.7096,0.00094463,0.00017796,0.0,0 PSLV DEB,1 27216U 01049FL  23031.13987150  .00017796  00000-0  94463-3 0  9994,2 27216  98.1652  99.4194 0024781 136.0469 254.7096 15.15136199146340,6898.701999999999,95.041,537.663,503.471,0.0
27216,PSLV DEB,DEBRIS,2023-01-31 23:00:36,15.15172086,0.002483,98.1657,100.2989,133.2771,41.3532,0.001117,0.00021088,0.0,0 PSLV DEB,1 27216U 01049FL  23031.95875701  .00021088  00000-0  11170-2 0  9994,2 27216  98.1657 100.2989 0024830 133.2771  41.3532 15.15172086146472,6898.593000000001,95.039,537.587,503.329,0.0
